{
  "type": "FeatureCollection",
  "features": [
    {
      "type": "Feature",
      "properties": {
        "norad_id": 30979,
        "name": "FENGYUN 1C DEB",
        "group": "fengyun-1c-debris",
        "lat": 40.529338669905336,
        "lon": -129.36131223969457,
        "alt_km": 722.0384212458603,
        "timestamp": "2025-12-04T17:48:40.445631+00:00",
        "meta_object_name": "FENGYUN 1C DEB",
        "meta_object_id": "1999-025BBV",
        "meta_epoch": "2025-12-02T04:36:50.855328",
        "meta_mean_motion": 14.78416107,
        "meta_eccentricity": 0.01913935,
        "meta_inclination": 97.83,
        "meta_ra_of_asc_node": 234.9135,
        "meta_arg_of_pericenter": 275.775,
        "meta_mean_anomaly": 240.4379,
        "meta_ephemeris_type": 0,
        "meta_classification_type": "U",
        "meta_norad_cat_id": 30979,
        "meta_element_set_no": 999,
        "meta_rev_at_epoch": 98989,
        "meta_bstar": 0.0013589928,
        "meta_mean_motion_dot": 0.00013437,
        "meta_mean_motion_ddot": 0,
        "tle_line1": "1 30979U 99025BBV 25336.19225527  .00013437  00000+0  13590-2 0  9992",
        "tle_line2": "2 30979  97.8300 234.9135 0191393 275.7750 240.4379 14.78416107989894"
      },
      "geometry": {
        "type": "Point",
        "coordinates": [
          -129.36131223969457,
          40.529338669905336
        ]
      }
    },
    {
      "type": "Feature",
      "properties": {
        "norad_id": 30982,
        "name": "FENGYUN 1C DEB",
        "group": "fengyun-1c-debris",
        "lat": -27.378674701871912,
        "lon": -26.55070245513716,
        "alt_km": 600.2457867128778,
        "timestamp": "2025-12-04T17:48:40.445641+00:00",
        "meta_object_name": "FENGYUN 1C DEB",
        "meta_object_id": "1999-025BBY",
        "meta_epoch": "2025-12-04T06:24:36.937152",
        "meta_mean_motion": 14.50900572,
        "meta_eccentricity": 0.01811442,
        "meta_inclination": 98.2152,
        "meta_ra_of_asc_node": 328.6945,
        "meta_arg_of_pericenter": 338.7,
        "meta_mean_anomaly": 34.1018,
        "meta_ephemeris_type": 0,
        "meta_classification_type": "U",
        "meta_norad_cat_id": 30982,
        "meta_element_set_no": 999,
        "meta_rev_at_epoch": 70931,
        "meta_bstar": 0.00077704382,
        "meta_mean_motion_dot": 3.741e-05,
        "meta_mean_motion_ddot": 0,
        "tle_line1": "1 30982U 99025BBY 25338.26709418  .00003741  00000+0  77704-3 0  9997",
        "tle_line2": "2 30982  98.2152 328.6945 0181144 338.7000  34.1018 14.50900572709318"
      },
      "geometry": {
        "type": "Point",
        "coordinates": [
          -26.55070245513716,
          -27.378674701871912
        ]
      }
    },
    {
      "type": "Feature",
      "properties": {
        "norad_id": 30984,
        "name": "FENGYUN 1C DEB",
        "group": "fengyun-1c-debris",
        "lat": -44.60546929830406,
        "lon": -173.01530669660272,
        "alt_km": 820.0293480848486,
        "timestamp": "2025-12-04T17:48:40.445651+00:00",
        "meta_object_name": "FENGYUN 1C DEB",
        "meta_object_id": "1999-025BCA",
        "meta_epoch": "2025-12-03T01:02:26.854368",
        "meta_mean_motion": 14.50329769,
        "meta_eccentricity": 0.01281668,
        "meta_inclination": 98.2653,
        "meta_ra_of_asc_node": 13.5601,
        "meta_arg_of_pericenter": 37.7619,
        "meta_mean_anomaly": 323.2485,
        "meta_ephemeris_type": 0,
        "meta_classification_type": "U",
        "meta_norad_cat_id": 30984,
        "meta_element_set_no": 999,
        "meta_rev_at_epoch": 95023,
        "meta_bstar": 0.00098864934,
        "meta_mean_motion_dot": 4.238e-05,
        "meta_mean_motion_ddot": 0,
        "tle_line1": "1 30984U 99025BCA 25337.04336637  .00004238  00000+0  98865-3 0  9996",
        "tle_line2": "2 30984  98.2653  13.5601 0128166  37.7619 323.2485 14.50329769950234"
      },
      "geometry": {
        "type": "Point",
        "coordinates": [
          -173.01530669660272,
          -44.60546929830406
        ]
      }
    },
    {
      "type": "Feature",
      "properties": {
        "norad_id": 30988,
        "name": "FENGYUN 1C DEB",
        "group": "fengyun-1c-debris",
        "lat": -9.914873729360526,
        "lon": 103.47580587908068,
        "alt_km": 577.5891563085424,
        "timestamp": "2025-12-04T17:48:40.445662+00:00",
        "meta_object_name": "FENGYUN 1C DEB",
        "meta_object_id": "1999-025BCE",
        "meta_epoch": "2025-12-03T07:54:06.145920",
        "meta_mean_motion": 15.24405925,
        "meta_eccentricity": 0.0119062,
        "meta_inclination": 98.5424,
        "meta_ra_of_asc_node": 283.3715,
        "meta_arg_of_pericenter": 12.1711,
        "meta_mean_anomaly": 348.2354,
        "meta_ephemeris_type": 0,
        "meta_classification_type": "U",
        "meta_norad_cat_id": 30988,
        "meta_element_set_no": 999,
        "meta_rev_at_epoch": 99420,
        "meta_bstar": 0.0027943,
        "meta_mean_motion_dot": 0.00084539,
        "meta_mean_motion_ddot": 0,
        "tle_line1": "1 30988U 99025BCE 25337.32923780  .00084539  00000+0  27943-2 0  9992",
        "tle_line2": "2 30988  98.5424 283.3715 0119062  12.1711 348.2354 15.24405925994203"
      },
      "geometry": {
        "type": "Point",
        "coordinates": [
          103.47580587908068,
          -9.914873729360526
        ]
      }
    },
    {
      "type": "Feature",
      "properties": {
        "norad_id": 30989,
        "name": "FENGYUN 1C DEB",
        "group": "fengyun-1c-debris",
        "lat": -64.3978023228841,
        "lon": 71.64591343900847,
        "alt_km": 919.1971542873271,
        "timestamp": "2025-12-04T17:48:40.445672+00:00",
        "meta_object_name": "FENGYUN 1C DEB",
        "meta_object_id": "1999-025BCF",
        "meta_epoch": "2025-12-02T21:58:05.055456",
        "meta_mean_motion": 14.13841846,
        "meta_eccentricity": 0.00920392,
        "meta_inclination": 99.0546,
        "meta_ra_of_asc_node": 50.3579,
        "meta_arg_of_pericenter": 127.3294,
        "meta_mean_anomaly": 233.6309,
        "meta_ephemeris_type": 0,
        "meta_classification_type": "U",
        "meta_norad_cat_id": 30989,
        "meta_element_set_no": 999,
        "meta_rev_at_epoch": 95849,
        "meta_bstar": 0.0021362586,
        "meta_mean_motion_dot": 4.171e-05,
        "meta_mean_motion_ddot": 0,
        "tle_line1": "1 30989U 99025BCF 25336.91533629  .00004171  00000+0  21363-2 0  9990",
        "tle_line2": "2 30989  99.0546  50.3579 0092039 127.3294 233.6309 14.13841846958495"
      },
      "geometry": {
        "type": "Point",
        "coordinates": [
          71.64591343900847,
          -64.3978023228841
        ]
      }
    },
    {
      "type": "Feature",
      "properties": {
        "norad_id": 30993,
        "name": "FENGYUN 1C DEB",
        "group": "fengyun-1c-debris",
        "lat": -25.827416025499677,
        "lon": 75.3059377244271,
        "alt_km": 774.8694217306202,
        "timestamp": "2025-12-04T17:48:40.445682+00:00",
        "meta_object_name": "FENGYUN 1C DEB",
        "meta_object_id": "1999-025BCK",
        "meta_epoch": "2025-12-04T06:33:10.508256",
        "meta_mean_motion": 14.35282971,
        "meta_eccentricity": 0.00166299,
        "meta_inclination": 98.8475,
        "meta_ra_of_asc_node": 70.5017,
        "meta_arg_of_pericenter": 41.5096,
        "meta_mean_anomaly": 30.1521,
        "meta_ephemeris_type": 0,
        "meta_classification_type": "U",
        "meta_norad_cat_id": 30993,
        "meta_element_set_no": 999,
        "meta_rev_at_epoch": 96798,
        "meta_bstar": 0.0047535346,
        "meta_mean_motion_dot": 0.00013616,
        "meta_mean_motion_ddot": 0,
        "tle_line1": "1 30993U 99025BCK 25338.27303829  .00013616  00000+0  47535-2 0  9996",
        "tle_line2": "2 30993  98.8475  70.5017 0016629  41.5096  30.1521 14.35282971967989"
      },
      "geometry": {
        "type": "Point",
        "coordinates": [
          75.3059377244271,
          -25.827416025499677
        ]
      }
    },
    {
      "type": "Feature",
      "properties": {
        "norad_id": 30994,
        "name": "FENGYUN 1C DEB",
        "group": "fengyun-1c-debris",
        "lat": -29.189014557570655,
        "lon": -7.664020634577382,
        "alt_km": 867.7435783044584,
        "timestamp": "2025-12-04T17:48:40.445693+00:00",
        "meta_object_name": "FENGYUN 1C DEB",
        "meta_object_id": "1999-025BCL",
        "meta_epoch": "2025-12-04T06:02:40.849152",
        "meta_mean_motion": 14.11763384,
        "meta_eccentricity": 0.00174015,
        "meta_inclination": 98.7003,
        "meta_ra_of_asc_node": 346.9535,
        "meta_arg_of_pericenter": 198.9371,
        "meta_mean_anomaly": 161.1156,
        "meta_ephemeris_type": 0,
        "meta_classification_type": "U",
        "meta_norad_cat_id": 30994,
        "meta_element_set_no": 999,
        "meta_rev_at_epoch": 96465,
        "meta_bstar": 0.0002933734,
        "meta_mean_motion_dot": 4.93e-06,
        "meta_mean_motion_ddot": 0,
        "tle_line1": "1 30994U 99025BCL 25338.25186168  .00000493  00000+0  29337-3 0  9990",
        "tle_line2": "2 30994  98.7003 346.9535 0017401 198.9371 161.1156 14.11763384964659"
      },
      "geometry": {
        "type": "Point",
        "coordinates": [
          -7.664020634577382,
          -29.189014557570655
        ]
      }
    }
  ]
}